DMSP 5D-3 F16 (USA 172) 
1 28054U 03048A   26062.50303455  .00000168  00000+0  11121-3 0  9998
2 28054  98.9998  85.5835 0008203  88.0191  71.8736 14.14459161154544
METEOSAT-9 (MSG-2)      
1 28912U 05049B   26062.09632663  .00000113  00000+0  00000+0 0  9994
2 28912   9.1220  55.1947 0001870 220.2001 325.8556  1.00276507  5931
DMSP 5D-3 F17 (USA 191) 
1 29522U 06050A   26062.45528307  .00000215  00000+0  13349-3 0  9991
2 29522  98.7412  71.1772 0010114   4.7910 355.3359 14.14960626997463
FENGYUN 3A              
1 32958U 08026A   26062.46208239  .00000135  00000+0  84466-4 0  9993
2 32958  98.6791   5.3292 0009825  74.3218 285.9041 14.19544054920400
GOES 14                 
1 35491U 09033A   26062.49208841  .00000115  00000+0  00000+0 0  9994
2 35491   1.4166  84.4343 0002209 296.6761 159.6122  1.00123843  5539
DMSP 5D-3 F18 (USA 210) 
1 35951U 09057A   26062.48908406  .00000316  00000+0  18696-3 0  9991
2 35951  98.8953  43.5396 0010779 186.0439 174.0606 14.14831127844644
EWS-G2 (GOES 15)        
1 36411U 10008A   26062.45641471  .00000007  00000+0  00000+0 0  9997
2 36411   1.0067  85.1657 0001687  23.2370 280.6157  1.00269337 58577
COMS 1                  
1 36744U 10032A   26062.56451703 -.00000356  00000+0  00000+0 0  9990
2 36744   4.5338  76.8821 0001089 279.1494 136.6882  1.00271057 50030
FENGYUN 3B              
1 37214U 10059A   26062.52259935  .00000164  00000+0  10793-3 0  9991
2 37214  98.9782 108.0217 0022956 124.7620  11.8722 14.14815703792482
SUOMI NPP               
1 37849U 11061A   26062.47008543  .00000098  00000+0  67593-4 0  9997
2 37849  98.7863   4.1224 0000437 290.8006  69.3123 14.19541404743445
METEOSAT-10 (MSG-3)     
1 38552U 12035B   26062.38239039 -.00000017  00000+0  00000+0 0  9994
2 38552   4.4213  61.4676 0002484 293.1926 304.4086  1.00277108 49799
METOP-B                 
1 38771U 12049A   26062.46180346  .00000149  00000+0  87976-4 0  9994
2 38771  98.6655 116.0025 0001228 300.4213  59.6843 14.21442249698245
INSAT-3D                
1 39216U 13038B   26062.52240884 -.00000353  00000+0  00000+0 0  9995
2 39216   1.6533  83.9254 0001790 240.3106 154.5900  1.00273752 46028
FENGYUN 3C              
1 39260U 13052A   26062.52712303  .00000151  00000+0  98145-4 0  9997
2 39260  98.4881  41.3123 0014131 331.7769  28.2638 14.15726596643615
METEOR-M 2              
1 40069U 14037A   26062.48889828  .00000466  00000+0  23243-3 0  9997
2 40069  98.5009  42.0286 0005743 355.9993   4.1138 14.21426573604301
HIMAWARI-8              
1 40267U 14060A   26062.47175479 -.00000290  00000+0  00000+0 0  9990
2 40267   0.0357 254.3626 0000796  66.8449 150.5035  1.00272550 41706
FENGYUN 2G              
1 40367U 14090A   26062.56271851 -.00000314  00000+0  00000+0 0  9992
2 40367   5.3718  74.0961 0001969 153.4848 235.9868  1.00274791 40940
METEOSAT-11 (MSG-4)     
1 40732U 15034A   26062.37444140  .00000048  00000+0  00000+0 0  9992
2 40732   2.9349  71.6876 0001800 270.5831 323.0823  1.00265776  6152
ELEKTRO-L 2             
1 41105U 15074A   26062.36967472 -.00000129  00000+0  00000+0 0  9999
2 41105   6.4281  71.8243 0003463 236.0875 331.7967  1.00270696 37441
INSAT-3DR               
1 41752U 16054A   26062.51500465 -.00000091  00000+0  00000+0 0  9996
2 41752   0.0447  97.1419 0013308 184.5751 138.9352  1.00272313 34752
HIMAWARI-9              
1 41836U 16064A   26062.47175479 -.00000289  00000+0  00000+0 0  9997
2 41836   0.0160 185.6699 0001152 178.2160 107.9503  1.00272520 34156
GOES 16                 
1 41866U 16071A   26062.41989120 -.00000106  00000+0  00000+0 0  9996
2 41866   0.1448  90.2078 0002581 216.6181 260.8121  1.00271658 34042
FENGYUN 4A              
1 41882U 16077A   26062.56724963 -.00000370  00000+0  00000+0 0  9991
2 41882   2.0537  81.4231 0007502 136.0731 271.5797  1.00279593 33871
CYGFM05                 
1 41884U 16078A   26062.52524028  .00028239  00000+0  45672-3 0  9991
2 41884  34.9565 237.8182 0006991 232.6535 127.3551 15.51803206512307
CYGFM04                 
1 41885U 16078B   26062.45960325  .00033317  00000+0  47611-3 0  9996
2 41885  34.9322 210.5429 0006125 265.4509  94.5515 15.55180714512496
CYGFM02                 
1 41886U 16078C   26062.43388898  .00062400  00000+0  82232-3 0  9997
2 41886  34.9410 207.7476 0007120 265.9178  94.0733 15.57234393512636
CYGFM01                 
1 41887U 16078D   26062.48985465  .00032773  00000+0  52141-3 0  9992
2 41887  34.9392 239.8719 0006583 223.9548 136.0652 15.52239327512240
CYGFM08                 
1 41888U 16078E   26062.47587401  .00031389  00000+0  47329-3 0  9994
2 41888  34.9429 221.9068 0008153 249.2003 110.7846 15.53711043512484
CYGFM07                 
1 41890U 16078G   26062.50942990  .00032091  00000+0  47197-3 0  9993
2 41890  34.9449 210.1720 0006698 269.3372  90.6584 15.54402182512519
CYGFM03                 
1 41891U 16078H   26062.48054728  .00032137  00000+0  47249-3 0  9993
2 41891  34.9403 212.3431 0005858 255.0258 104.9817 15.54417038512485
FENGYUN 3D              
1 43010U 17072A   26062.50473589 -.00000180  00000+0 -63211-4 0  9999
2 43010  99.0013  35.0788 0001897  25.8017 334.3253 14.19711772429997
NOAA 20 (JPSS-1)        
1 43013U 17073A   26062.41423891  .00000100  00000+0  68391-4 0  9998
2 43013  98.7685   2.8641 0000913 145.5401 214.5834 14.19534140429464
GOES 17                 
1 43226U 18022A   26062.40878172 -.00000197  00000+0  00000+0 0  9999
2 43226   0.6656  87.5764 0002305 219.9995 271.2510  1.00270430 29368
FENGYUN 2H              
1 43491U 18050A   26062.57377862 -.00000140  00000+0  00000+0 0  9990
2 43491   2.7584  80.3655 0001973 174.2720 192.3180  1.00272591 28381
METOP-C                 
1 43689U 18087A   26062.41602543  .00000147  00000+0  86979-4 0  9999
2 43689  98.6779 123.8951 0002161 108.6534 251.4878 14.21494528379806
GEO-KOMPSAT-2A          
1 43823U 18100A   26061.97008322 -.00000360  00000+0  00000+0 0  9994
2 43823   0.0202  70.0220 0001474 329.8478 238.3430  1.00272120 26561
METEOR-M2 2             
1 44387U 19038A   26062.52301017  .00000106  00000+0  65575-4 0  9990
2 44387  98.9071  48.2893 0001245  14.9070 345.2144 14.24330730346259
ARKTIKA-M 1             
1 47719U 21016A   26061.82287547 -.00000108  00000+0  00000+0 0  9994
2 47719  63.2036  72.8571 7242814 269.4536  15.2019  2.00620868 36653
FENGYUN 3E              
1 49008U 21062A   26062.50091745  .00000196  00000+0  11306-3 0  9998
2 49008  98.7505  67.0837 0002481  52.7250 307.4152 14.19893192241583
GOES 18                 
1 51850U 22021A   26062.44905834  .00000082  00000+0  00000+0 0  9997
2 51850   0.0277  75.5670 0000593 317.9827 152.3064  1.00271586  5535
NOAA 21 (JPSS-2)        
1 54234U 22150A   26062.44901596  .00000123  00000+0  79371-4 0  9998
2 54234  98.7548   2.7866 0002506 117.6644 242.4786 14.19550234171547
METEOSAT-12 (MTG-I1)    
1 54743U 22170C   26062.38239039 -.00000021  00000+0  00000+0 0  9990
2 54743   0.7444  28.9992 0001891 281.9468 347.5747  1.00274710 11911
TIANMU-1 03             
1 55973U 23039A   26062.52837103  .00020579  00000+0  45402-3 0  9991
2 55973  97.5164 232.6402 0003956 118.9008 241.2637 15.43918905164519
TIANMU-1 04             
1 55974U 23039B   26062.48866359  .00021918  00000+0  47680-3 0  9990
2 55974  97.5096 231.7613 0004620 115.4554 244.7173 15.44321070164510
TIANMU-1 05             
1 55975U 23039C   26062.50472020  .00021340  00000+0  47168-3 0  9992
2 55975  97.5143 232.2695 0003715 136.4637 223.6905 15.43858713164493
TIANMU-1 06             
1 55976U 23039D   26062.48858590  .00022081  00000+0  47987-3 0  9992
2 55976  97.5153 232.7876 0004021 131.9802 228.1789 15.44351572164511
FENGYUN 3G              
1 56232U 23055A   26062.52645999  .00037166  00000+0  56353-3 0  9995
2 56232  49.9932 170.8246 0010712 345.7650  14.3014 15.54147439163584
METEOR-M2 3             
1 57166U 23091A   26062.49394648  .00000025  00000+0  29523-4 0  9994
2 57166  98.6228 119.5706 0005032 113.3035 246.8674 14.24036909139476
TIANMU-1 07             
1 57399U 23101A   26062.49885125  .00008942  00000+0  31807-3 0  9992
2 57399  97.2738 115.5856 0004776 145.8682 214.2867 15.29193606145495
TIANMU-1 08             
1 57400U 23101B   26061.81455363  .00000469  00000+0  19083-4 0  9996
2 57400  97.2730 114.6953 0006290 145.3494 214.8157 15.29213455145388
TIANMU-1 09             
1 57401U 23101C   26060.81433519  .00000691  00000+0  26964-4 0  9998
2 57401  97.2691 113.1975 0005114 156.2312 203.9165 15.29179768145237
TIANMU-1 10             
1 57402U 23101D   26062.48478734  .00009292  00000+0  33014-3 0  9991
2 57402  97.2763 115.7657 0006870 150.4481 209.7149 15.29209632145483
FENGYUN 3F              
1 57490U 23111A   26062.48695061  .00000096  00000+0  65644-4 0  9991
2 57490  98.6941 134.4262 0001340  82.5909 277.5419 14.19917725133869
ARKTIKA-M 2             
1 58584U 23198A   26062.08261615  .00000137  00000+0  00000+0 0  9997
2 58584  63.2203 166.1216 6876964 267.7841  18.8417  2.00614888 16195
TIANMU-1 11             
1 58645U 23205A   26062.51040508  .00007575  00000+0  29898-3 0  9991
2 58645  97.3546  85.7616 0009735  29.0502 331.1276 15.25777598121406
TIANMU-1 12             
1 58646U 23205B   26062.54252459  .00008512  00000+0  33650-3 0  9998
2 58646  97.3534  85.5736 0007527  15.8162 344.3310 15.25700869121397
TIANMU-1 13             
1 58647U 23205C   26062.50803733  .00007723  00000+0  30521-3 0  9999
2 58647  97.3562  85.7758 0007178 357.1127   3.0068 15.25749193121381
TIANMU-1 14             
1 58648U 23205D   26062.49251385  .00008002  00000+0  31626-3 0  9996
2 58648  97.3496  85.0349 0008086   0.2240 359.9000 15.25726342121388
TIANMU-1 19             
1 58660U 23208A   26062.51575538  .00012036  00000+0  42097-3 0  9991
2 58660  97.4387 178.4974 0004333 343.7333  16.3767 15.29672882121165
TIANMU-1 20             
1 58661U 23208B   26062.57022685  .00011722  00000+0  39518-3 0  9993
2 58661  97.4326 179.0794 0006652 349.2198  10.8899 15.30863735121258
TIANMU-1 21             
1 58662U 23208C   26062.51143935  .00013516  00000+0  42802-3 0  9993
2 58662  97.4380 181.2717 0006402 342.7533  17.3491 15.32847402121360
TIANMU-1 22             
1 58663U 23208D   26062.46643963  .00011372  00000+0  40253-3 0  9990
2 58663  97.4381 178.4631 0003619  16.1366 343.9988 15.29299599121169
TIANMU-1 15             
1 58700U 24004A   26062.55585451  .00007644  00000+0  30241-3 0  9997
2 58700  97.4660 248.8029 0007175  11.4650 348.6750 15.25721598119665
TIANMU-1 16             
1 58701U 24004B   26062.53947485  .00008786  00000+0  34685-3 0  9999
2 58701  97.4601 248.1142 0005733  17.2085 342.9346 15.25755234119666
TIANMU-1 17             
1 58702U 24004C   26062.52195186  .00008779  00000+0  34623-3 0  9996
2 58702  97.4633 248.5474 0004950  20.6197 339.5240 15.25791761119655
TIANMU-1 18             
1 58703U 24004D   26062.50691204  .00008225  00000+0  32509-3 0  9994
2 58703  97.4651 248.7428 0004349  21.9658 338.1765 15.25742498119655
INSAT-3DS               
1 58990U 24033A   26062.51949163 -.00000170  00000+0  00000+0 0  9994
2 58990   0.0580 264.9057 0002315  91.4864  73.9666  1.00270334 46009
METEOR-M2 4             
1 59051U 24039A   26062.52932362  .00000031  00000+0  33660-4 0  9991
2 59051  98.6895  23.2242 0008067 111.8102 248.3934 14.22415934104246
GOES 19                 
1 60133U 24119A   26062.42894124 -.00000263  00000+0  00000+0 0  9990
2 60133   0.0138 313.0575 0000954  63.6038 223.7453  1.00272161  5905
FENGYUN 3H              
1 65815U 25219A   26062.41278564  .00000097  00000+0  66181-4 0  9998
2 65815  98.6678   5.2911 0001407  66.0165 294.1159 14.19930569 22377
